STARLINK-3914           
1 52490U 22049AR  26068.23168749 -.00000030  00000+0  16193-4 0  9996
2 52490  53.2182  51.1733 0001432  93.4869 266.6287 15.08836745212326
GRBBETA                 
1 60237U 24128C   26068.70717138  .00006748  00000+0  46404-3 0  9996
2 60237  61.9904 205.0764 0051339 114.1677 246.4795 15.05794613 91289
